240P/NEAT,e,23.5371,74.9163,352.0361,3.861179,0.1299045,0.45035097,301.0334,09/22.0/2024,2000,g 11.0,4.0
# From MPEC 2022-J42
241P/LINEAR,e,21.0948,305.4452,111.5563,4.926013,0.0901490,0.61038755,104.0093,09/22.0/2024,2000,g 13.5,4.0
# From MPEC 2024-RQ6
242P/Spahr,e,32.4385,180.3268,244.8717,5.534403,0.0757003,0.28237644,353.0281,09/22.0/2024,2000,g  8.0,4.0
# From MPEC 2022-K19
243P/NEAT,e,7.6440,87.6481,283.6786,3.828012,0.1315964,0.36048881,291.3850,09/22.0/2024,2000,g 12.5,4.0
# From MPEC 2024-L77
244P/Scotti,e,2.2584,354.0102,93.3609,4.902040,0.0908111,0.19986435,61.0972,09/22.0/2024,2000,g  9.0,4.0
# From MPEC 2022-CN4
245P/WISE,e,21.1738,316.8889,316.5330,4.051036,0.1208801,0.45568744,292.8739,09/22.0/2024,2000,g 14.0,4.0
# From MPEC 2024-L77
246P/NEAT,e,17.7337,74.2415,185.2444,4.188555,0.1149761,0.25225405,153.7940,09/22.0/2024,2000,g 10.5,4.0
# From MPEC 2021-F20
247P/LINEAR,e,13.6585,54.0034,47.4604,3.965140,0.1248292,0.62545343,264.6327,09/22.0/2024,2000,g 16.5,2.0
# From MPC 75730
248P/Gibbs,e,6.3515,207.8112,209.9545,5.983759,0.0673353,0.63933281,335.9018,09/22.0/2024,2000,g 14.0,4.0
# From MPEC 2022-YN2
249P/LINEAR,e,8.3854,239.0436,65.7454,2.764897,0.2143807,0.81935184,331.5529,09/22.0/2024,2000,g 15.5,4.0
# From MPC110497
250P/Larson,e,13.1574,73.2836,45.8064,3.778722,0.1341797,0.39881247,328.2050,09/22.0/2024,2000,g 14.5,4.0
# From MPEC 2024-PC5
251P/LINEAR,e,23.3870,219.3398,31.2075,3.512883,0.1496954,0.50433356,33.2002,09/22.0/2024,2000,g 16.5,2.0
# From MPEC 2021-S45
252P/LINEAR,e,10.4174,190.9062,343.3795,3.051234,0.1849230,0.67088017,216.3256,09/22.0/2024,2000,g 17.5,4.0
# From MPEC 2024-RQ6
253P/PANSTARRS,e,4.9442,146.8653,230.8157,3.462165,0.1529968,0.41458871,355.5661,09/22.0/2024,2000,g 14.5,4.0
# From MPEC 2024-EF7
254P/McNaught,e,32.5445,129.1847,219.7451,4.619055,0.0992829,0.31883631,144.3033,09/22.0/2024,2000,g 11.0,4.0
# From NK 2214
255P/Levy,e,13.4033,275.6366,186.0360,2.942412,0.1952760,0.71195140,145.5191,09/22.0/2024,2000,g  9.0,4.0
# From MPEC 2024-L77
256P/LINEAR,e,27.6243,81.3289,124.1113,4.636597,0.0987200,0.41786815,55.2859,09/22.0/2024,2000,g 14.0,2.0
# From MPEC 2023-A50
257P/Catalina,e,20.2184,207.7203,117.7679,3.766885,0.1348126,0.42904485,198.6781,09/22.0/2024,2000,g 11.5,4.0
# From MPEC 2021-U31
258P/PANSTARRS,e,6.7504,126.2335,25.5921,4.390259,0.1071443,0.20916798,166.8868,09/22.0/2024,2000,g 13.0,4.0
# From MPC106349
259P/Garradd,e,15.8985,51.3709,257.5249,2.728924,0.2186336,0.33878005,209.3057,09/22.0/2024,2000,g 15.5,4.0
# From MPEC 2022-O01
260P/McNaught,e,15.0465,349.3242,18.4829,3.623480,0.1428944,0.60898353,262.5663,09/22.0/2024,2000,g 13.5,4.0
# From MPEC 2021-J28
261P/Larson,e,6.0727,291.0554,67.3575,3.490186,0.1511580,0.42296337,290.2677,09/22.0/2024,2000,g 14.0,4.0
# From MPC 82322
262P/McNaught-Russell,e,29.2700,217.8886,171.0667,6.869442,0.0547422,0.81623658,235.5133,09/22.0/2024,2000,g 13.5,4.0
# From MPEC 2024-L77
263P/Gibbs,e,11.5255,105.5021,35.0243,3.041188,0.1858400,0.59382664,111.5623,09/22.0/2024,2000,g 18.0,4.0
# From MPC114608
264P/Larsen,e,25.3383,219.4056,341.2695,4.020135,0.1222765,0.34220387,249.4189,09/22.0/2024,2000,g 13.0,4.0
# From MPC 79870
265P/LINEAR,e,14.3490,342.9396,33.5373,4.259730,0.1121065,0.64711339,148.0807,09/22.0/2024,2000,g 14.5,4.0
# From MPEC 2021-F20
266P/Christensen,e,3.4276,4.9559,97.7327,3.528987,0.1486719,0.34076661,240.1285,09/22.0/2024,2000,g 14.7,4.0
# From MPC114608
267P/LONEOS,e,6.1427,228.5985,114.2378,3.210138,0.1713636,0.61437860,25.7345,09/22.0/2024,2000,g 19.5,4.0
# From MPC 92277
268P/Bernardi,e,15.6406,124.7144,0.0049,4.629512,0.0989467,0.47221745,351.4152,09/22.0/2024,2000,g 14.0,4.0
# From MPEC 2023-J29
269P/Jedicke,e,7.0846,241.7734,225.6808,7.060772,0.0525322,0.43313860,191.1441,09/22.0/2024,2000,g 10.0,4.0
# From MPC 88332
270P/Gehrels,e,2.9252,223.0377,209.8674,6.651452,0.0574552,0.47011364,236.2344,09/22.0/2024,2000,g  8.0,4.0
# From MPC 92277
271P/van Houten-Lemmon,e,6.8690,9.3091,36.5533,7.032458,0.0528498,0.39612526,215.3992,09/22.0/2024,2000,g 11.0,4.0
# From MPEC 2023-D41
272P/NEAT,e,18.0791,109.4416,27.8821,4.461859,0.1045756,0.45528665,83.4315,09/22.0/2024,2000,g 16.0,2.0
# From MPC 82723
273P/Pons-Gambart,e,136.4854,320.3973,20.1772,31.97466,0.0054512,0.97445234,0.0000,12/22.3069/2012,2000,g 11.5,4.0
# From MPEC 2024-GJ3
274P/Tombaugh-Tenagra,e,15.8207,81.3180,38.4761,4.378137,0.1075895,0.44007387,96.5297,09/22.0/2024,2000,g 13.0,4.0
# From MPC 81862
275P/Hermann,e,21.2562,348.6898,173.9095,5.791726,0.0707118,0.71351106,305.8190,09/22.0/2024,2000,g 17.0,4.0
# From MPEC 2024-RQ6
276P/Vorobjov,e,14.8060,211.3411,199.2743,5.345284,0.0797532,0.27063093,353.6301,09/22.0/2024,2000,g 11.5,4.0
# From MPEC 2021-F20
277P/LINEAR,e,16.7904,276.2641,152.4111,3.853564,0.1302898,0.50647070,177.2873,09/22.0/2024,2000,g 15.1,4.0
# From MPEC 2021-S45
278P/McNaught,e,6.6530,14.7535,237.9147,3.663161,0.1405789,0.44364301,206.1427,09/22.0/2024,2000,g 14.0,4.0
# From MPEC 2024-A43
279P/LaSagra,e,5.0505,346.1224,5.7098,3.570572,0.1460822,0.39932010,76.2550,09/22.0/2024,2000,g 14.0,4.0
# From MPEC 2024-RQ6
280P/Larsen,e,11.7743,131.3754,104.6920,4.526368,0.1023480,0.41681974,42.4209,09/22.0/2024,2000,g 12.5,4.0
# From MPEC 2023-D41
281P/MOSS,e,4.7176,87.1668,26.8544,4.884136,0.0913109,0.17377536,54.5093,09/22.0/2024,2000,g 11.0,4.0
# From MPC133426
282P/,e,5.8127,217.6114,9.1893,4.236438,0.1130324,0.18762554,120.3309,09/22.0/2024,2000,g 13.5,2.0
# From MPEC 2022-K19
283P/Spacewatch,e,14.4632,161.1207,22.1565,4.132819,0.1173098,0.48458562,130.2390,09/22.0/2024,2000,g 16.0,2.0
# From MPEC 2024-D33
284P/McNaught,e,11.8556,144.2682,202.4769,3.678063,0.1397254,0.37464464,154.5396,09/22.0/2024,2000,g 13.0,4.0
# From MPEC 2024-L77
285P/LINEAR,e,25.0362,185.5071,178.3905,4.505755,0.1030511,0.61830941,63.7813,09/22.0/2024,2000,g 15.0,4.0
# From MPEC 2024-LE0
286P/Christensen,e,17.1436,283.5971,24.5248,4.095171,0.1189313,0.42780625,102.7736,09/22.0/2024,2000,g 14.0,4.0
# From MPEC 2024-GJ3
287P/Christensen,e,16.3129,138.9598,189.5468,4.173440,0.1156013,0.27242838,51.1228,09/22.0/2024,2000,g 13.5,4.0
# From MPC133426
288P/,e,3.2383,83.1051,280.3053,3.049644,0.1850676,0.19994921,173.1393,09/22.0/2024,2000,g 16.0,2.0
# From MPEC 2024-O39
289P/Blanpain,e,5.9003,68.8919,9.8723,3.043986,0.1855838,0.68644929,322.0812,09/22.0/2024,2000,g 19.0,4.0
# From MPC 95214
290P/Jager,e,20.0481,302.6767,181.8311,6.215353,0.0636071,0.62800953,247.7694,09/22.0/2024,2000,g 10.5,4.0
# From MPEC 2024-L77
291P/NEAT,e,6.3098,237.6594,173.5285,4.533958,0.1020911,0.43406321,51.7562,09/22.0/2024,2000,g 13.0,4.0
# From MPEC 2022-K19
292P/Li,e,24.3196,90.8970,319.6365,6.097405,0.0654616,0.59001013,253.7448,09/22.0/2024,2000,g 12.5,4.0
# From MPEC 2022-L66
293P/Spacewatch,e,9.0615,78.3670,40.9538,3.638560,0.1420070,0.41926875,194.8253,09/22.0/2024,2000,g 14.5,4.0
# From MPEC 2020-SI8
294P/LINEAR,e,18.1553,311.2990,235.8625,3.194456,0.1726270,0.60049580,304.1144,09/22.0/2024,2000,g 15.5,4.0
# From MPEC 2022-K19
295P/LINEAR,e,21.0801,7.3943,72.9965,5.301157,0.0807510,0.61763651,306.0023,09/22.0/2024,2000,g 12.0,4.0
# From MPEC 2021-N06
296P/Garradd,e,25.3539,263.5203,349.9216,3.483640,0.1515843,0.48222156,221.8054,09/22.0/2024,2000,g 14.0,4.0
# From MPC102956
297P/Beshore,e,11.0377,92.6078,141.4482,3.535217,0.1482791,0.30177743,197.7223,09/22.0/2024,2000,g 15.0,4.0
# From MPC114609
298P/Christensen,e,7.8712,52.7969,100.5971,3.588856,0.1449673,0.38661227,214.1513,09/22.0/2024,2000,g 15.0,4.0
# From MPEC 2024-RQ6
299P/Catalina-PANSTARRS,e,10.4686,271.5807,323.6665,4.389465,0.1071733,0.28093727,15.5147,09/22.0/2024,2000,g 11.5,4.0
# From MPEC 2023-VM5
300P/Catalina,e,5.6762,95.6193,222.9053,2.697030,0.2225233,0.69184401,117.9195,09/22.0/2024,2000,g 16.0,4.0
# From MPC 89014
301P/LINEAR-NEAT,e,10.3296,351.0679,193.4691,5.748770,0.0715059,0.58594202,264.6180,09/22.0/2024,2000,g 13.0,4.0
# From MPEC 2024-RQ6
302P/Lemmon-PANSTARRS,e,6.0352,121.7143,208.6258,4.269165,0.1117351,0.22967548,341.1854,09/22.0/2024,2000,g 12.5,4.0
# From MPC 92278
303P/NEAT,e,7.0164,347.9645,357.0187,5.040964,0.0870831,0.51045760,315.0771,09/22.0/2024,2000,g 13.5,4.0
# From MPEC 2022-K19
304P/Ory,e,2.6061,58.9410,335.2686,3.150141,0.1762824,0.60095167,264.4339,09/22.0/2024,2000,g 16.5,4.0
# From MPEC 2024-RQ6
305P/Skiff,e,11.6713,240.1064,147.4252,4.635238,0.0987634,0.69395184,354.4521,09/22.0/2024,2000,g 18.0,4.0
# From MPC 92278
306P/LINEAR,e,8.3033,341.3620,0.8943,3.124568,0.1784510,0.59266138,304.0320,09/22.0/2024,2000,g 19.0,4.0
# From MPC 92278
307P/LINEAR,e,4.4357,158.1450,222.2260,5.787919,0.0707816,0.67531391,251.5868,09/22.0/2024,2000,g 15.0,4.0
# From MPEC 2022-C56
308P/Lagerkvist-Carsenty,e,4.8531,63.0968,333.7325,6.599989,0.0581285,0.36454288,198.6650,09/22.0/2024,2000,g 13.0,2.0
# From MPEC 2024-BE0
309P/LINEAR,e,17.0214,10.1368,49.9067,4.374704,0.1077162,0.61832769,19.0687,09/22.0/2024,2000,g 15.0,4.0
# From MPEC 2024-LE0
310P/Hill,e,13.1197,8.8865,31.5356,4.182447,0.1152281,0.42231684,38.5670,09/22.0/2024,2000,g 13.5,4.0
# From MPEC 2024-A43
311P/PANSTARRS,e,4.9713,279.1721,144.2145,2.188265,0.3044768,0.11563541,80.4504,09/22.0/2024,2000,g 17.0,4.0
# From MPEC 2024-NE4
312P/NEAT,e,19.7494,144.6501,207.7083,3.471591,0.1523741,0.42696357,222.2090,09/22.0/2024,2000,g 16.0,4.0
# From MPEC 2024-N80
313P/Gibbs,e,10.9803,105.9264,254.9598,3.163965,0.1751284,0.23463900,283.5372,09/22.0/2024,2000,g 15.0,4.0
# From MPC105243
314P/Montani,e,3.9914,267.6200,213.8463,7.250579,0.0504830,0.41816180,146.5339,09/22.0/2024,2000,g  9.5,4.0
# From MPEC 2023-J29
315P/LONEOS,e,17.7326,68.6712,65.8445,4.937963,0.0898219,0.52178136,256.6399,09/22.0/2024,2000,g 11.0,4.0
# From MPEC 2024-NE4
316P/LONEOS-Christensen,e,9.8887,245.9346,188.3123,4.425549,0.1058652,0.15936500,357.6686,09/22.0/2024,2000,g 13.5,4.0
# From MPEC 2020-C98
317P/WISE,e,11.9731,275.4691,334.8535,2.960362,0.1935026,0.57180308,281.8425,09/22.0/2024,2000,g 17.5,4.0
# From MPC102103
